STARLINK-35256          
1 66011U 25232G   26068.52490374  .00017516  00000+0  60200-3 0  9994
2 66011  53.1573 104.4402 0001243  76.3858 283.7281 15.30205580 23412
KUIPER-00208            
1 67775U 26030M   26068.67231509  .00043852  00000+0  13883-2 0  9994
2 67775  51.8846 219.6993 0015525  57.3146 302.9333 15.32208734  5080
